HULIANWANG DIGUI-144    
1 67442U 26007H   26035.92519527 -.00000007  00000+0  13284-3 0  9992
2 67442  50.0080 206.0051 0000446   2.3131 357.7765 13.78400814  3106
HULIANWANG DIGUI-145    
1 67443U 26007J   26035.92180110  .00000014  00000+0  15321-3 0  9996
2 67443  50.0077 205.9845 0000548 281.7133  78.3699 13.78567191  3104
CZ-8A R/B               
1 67444U 26007K   26035.95752405 -.00000145  00000+0  55211-5 0  9992
2 67444  50.0083 202.1354 0092198 159.5940 200.8689 14.13551166  3157
STARLINK-36542          
1 67445U 26008A   26036.16668981 -.02121505  00000+0 -28498-1 0  9993
2 67445  43.0002  31.1064 0001270 265.6302  69.5189 15.60181830  4562
STARLINK-36539          
1 67446U 26008B   26036.16668981 -.02078682  00000+0 -26419-1 0  9992
2 67446  43.0005  31.0492 0001217 270.7573  87.5805 15.62093004  4560
STARLINK-36440          
1 67447U 26008C   26035.39396356 -.00618888  00000+0 -44540-2 0  9993
2 67447  42.9995  35.5635 0000731 302.0276  58.0522 15.74395349  4451
STARLINK-36423          
1 67448U 26008D   26036.16668981 -.02113023  00000+0 -31456-1 0  9990
2 67448  43.0001  31.1778 0001270 261.5025  44.4577 15.57487730  4560
STARLINK-36519          
1 67449U 26008E   26036.16668981 -.02092859  00000+0 -21190-1 0  9998
2 67449  43.0000  30.9207 0001177 274.7671 135.1083 15.67748056  4565
STARLINK-36525          
1 67450U 26008F   26036.16668981 -.02112037  00000+0 -28590-1 0  9992
2 67450  43.0001  31.0877 0001240 269.2950  72.9502 15.59969152  4560
STARLINK-36511          
1 67451U 26008G   26036.16668981 -.02108196  00000+0 -31068-1 0  9998
2 67451  43.0001  31.1542 0001290 259.5052  55.8671 15.57747000  4562
STARLINK-36524          
1 67452U 26008H   26036.16668981 -.02126945  00000+0 -27917-1 0  9999
2 67452  43.0002  31.0542 0001165 267.9234  87.6549 15.60787856  4563
STARLINK-36518          
1 67453U 26008J   26036.16668981 -.02082981  00000+0 -25020-1 0  9994
2 67453  42.9995  30.6152 0000732 268.5939 259.9803 15.63529679  4582
