CCSDS_OMM_VERS = 2.0
CREATION_DATE  = 
ORIGINATOR     = 

OBJECT_NAME    = HULIANWANG DIGUI-144
OBJECT_ID      = 2026-007H
CENTER_NAME    = EARTH
REF_FRAME      = TEME
TIME_SYSTEM    = UTC
MEAN_ELEMENT_THEORY = SGP/SGP4

EPOCH          = 2026-02-04T22:12:16.871328
MEAN_MOTION    = 13.78400814
ECCENTRICITY   = .0000446
INCLINATION    = 50.0080
RA_OF_ASC_NODE = 206.0051
ARG_OF_PERICENTER = 2.3131
MEAN_ANOMALY   = 357.7765

EPHEMERIS_TYPE = 0
CLASSIFICATION_TYPE = U
NORAD_CAT_ID   = 67442
ELEMENT_SET_NO = 999
REV_AT_EPOCH   = 310
BSTAR          = .13284E-3
MEAN_MOTION_DOT = -.7E-7
MEAN_MOTION_DDOT = 0

CCSDS_OMM_VERS = 2.0
CREATION_DATE  = 
ORIGINATOR     = 

OBJECT_NAME    = HULIANWANG DIGUI-145
OBJECT_ID      = 2026-007J
CENTER_NAME    = EARTH
REF_FRAME      = TEME
TIME_SYSTEM    = UTC
MEAN_ELEMENT_THEORY = SGP/SGP4

EPOCH          = 2026-02-04T22:07:23.615040
MEAN_MOTION    = 13.78567191
ECCENTRICITY   = .0000548
INCLINATION    = 50.0077
RA_OF_ASC_NODE = 205.9845
ARG_OF_PERICENTER = 281.7133
MEAN_ANOMALY   = 78.3699

EPHEMERIS_TYPE = 0
CLASSIFICATION_TYPE = U
NORAD_CAT_ID   = 67443
ELEMENT_SET_NO = 999
REV_AT_EPOCH   = 310
BSTAR          = .15321E-3
MEAN_MOTION_DOT = .14E-6
MEAN_MOTION_DDOT = 0

CCSDS_OMM_VERS = 2.0
CREATION_DATE  = 
ORIGINATOR     = 

OBJECT_NAME    = CZ-8A R/B
OBJECT_ID      = 2026-007K
CENTER_NAME    = EARTH
REF_FRAME      = TEME
TIME_SYSTEM    = UTC
MEAN_ELEMENT_THEORY = SGP/SGP4

EPOCH          = 2026-02-04T22:58:50.077920
MEAN_MOTION    = 14.13551166
ECCENTRICITY   = .0092198
INCLINATION    = 50.0083
RA_OF_ASC_NODE = 202.1354
ARG_OF_PERICENTER = 159.5940
MEAN_ANOMALY   = 200.8689

EPHEMERIS_TYPE = 0
CLASSIFICATION_TYPE = U
NORAD_CAT_ID   = 67444
ELEMENT_SET_NO = 999
REV_AT_EPOCH   = 315
BSTAR          = .55211E-5
MEAN_MOTION_DOT = -.145E-5
MEAN_MOTION_DDOT = 0

CCSDS_OMM_VERS = 2.0
CREATION_DATE  = 
ORIGINATOR     = 

OBJECT_NAME    = STARLINK-36542
OBJECT_ID      = 2026-008A
CENTER_NAME    = EARTH
REF_FRAME      = TEME
TIME_SYSTEM    = UTC
MEAN_ELEMENT_THEORY = SGP/SGP4

EPOCH          = 2026-02-05T04:00:01.999584
MEAN_MOTION    = 15.60181830
ECCENTRICITY   = .000127
INCLINATION    = 43.0002
RA_OF_ASC_NODE = 31.1064
ARG_OF_PERICENTER = 265.6302
MEAN_ANOMALY   = 69.5189

EPHEMERIS_TYPE = 0
CLASSIFICATION_TYPE = U
NORAD_CAT_ID   = 67445
ELEMENT_SET_NO = 999
REV_AT_EPOCH   = 456
BSTAR          = -.28498E-1
MEAN_MOTION_DOT = -.2121505E-1
MEAN_MOTION_DDOT = 0

CCSDS_OMM_VERS = 2.0
CREATION_DATE  = 
ORIGINATOR     = 

OBJECT_NAME    = STARLINK-36539
OBJECT_ID      = 2026-008B
CENTER_NAME    = EARTH
REF_FRAME      = TEME
TIME_SYSTEM    = UTC
MEAN_ELEMENT_THEORY = SGP/SGP4

EPOCH          = 2026-02-05T04:00:01.999584
MEAN_MOTION    = 15.62093004
ECCENTRICITY   = .0001217
INCLINATION    = 43.0005
RA_OF_ASC_NODE = 31.0492
ARG_OF_PERICENTER = 270.7573
MEAN_ANOMALY   = 87.5805

EPHEMERIS_TYPE = 0
CLASSIFICATION_TYPE = U
NORAD_CAT_ID   = 67446
ELEMENT_SET_NO = 999
REV_AT_EPOCH   = 456
BSTAR          = -.26419E-1
MEAN_MOTION_DOT = -.2078682E-1
MEAN_MOTION_DDOT = 0

CCSDS_OMM_VERS = 2.0
CREATION_DATE  = 
ORIGINATOR     = 

OBJECT_NAME    = STARLINK-36440
OBJECT_ID      = 2026-008C
CENTER_NAME    = EARTH
REF_FRAME      = TEME
TIME_SYSTEM    = UTC
MEAN_ELEMENT_THEORY = SGP/SGP4

EPOCH          = 2026-02-04T09:27:18.451584
MEAN_MOTION    = 15.74395349
ECCENTRICITY   = .0000731
INCLINATION    = 42.9995
RA_OF_ASC_NODE = 35.5635
ARG_OF_PERICENTER = 302.0276
MEAN_ANOMALY   = 58.0522

EPHEMERIS_TYPE = 0
CLASSIFICATION_TYPE = U
NORAD_CAT_ID   = 67447
ELEMENT_SET_NO = 999
REV_AT_EPOCH   = 445
BSTAR          = -.4454E-2
MEAN_MOTION_DOT = -.618888E-2
MEAN_MOTION_DDOT = 0

CCSDS_OMM_VERS = 2.0
CREATION_DATE  = 
ORIGINATOR     = 

OBJECT_NAME    = STARLINK-36423
OBJECT_ID      = 2026-008D
CENTER_NAME    = EARTH
REF_FRAME      = TEME
TIME_SYSTEM    = UTC
MEAN_ELEMENT_THEORY = SGP/SGP4

EPOCH          = 2026-02-05T04:00:01.999584
MEAN_MOTION    = 15.57487730
ECCENTRICITY   = .000127
INCLINATION    = 43.0001
RA_OF_ASC_NODE = 31.1778
ARG_OF_PERICENTER = 261.5025
MEAN_ANOMALY   = 44.4577

EPHEMERIS_TYPE = 0
CLASSIFICATION_TYPE = U
NORAD_CAT_ID   = 67448
ELEMENT_SET_NO = 999
REV_AT_EPOCH   = 456
BSTAR          = -.31456E-1
MEAN_MOTION_DOT = -.2113023E-1
MEAN_MOTION_DDOT = 0

CCSDS_OMM_VERS = 2.0
CREATION_DATE  = 
ORIGINATOR     = 

OBJECT_NAME    = STARLINK-36519
OBJECT_ID      = 2026-008E
CENTER_NAME    = EARTH
REF_FRAME      = TEME
TIME_SYSTEM    = UTC
MEAN_ELEMENT_THEORY = SGP/SGP4

EPOCH          = 2026-02-05T04:00:01.999584
MEAN_MOTION    = 15.67748056
ECCENTRICITY   = .0001177
INCLINATION    = 43.0000
RA_OF_ASC_NODE = 30.9207
ARG_OF_PERICENTER = 274.7671
MEAN_ANOMALY   = 135.1083

EPHEMERIS_TYPE = 0
CLASSIFICATION_TYPE = U
NORAD_CAT_ID   = 67449
ELEMENT_SET_NO = 999
REV_AT_EPOCH   = 456
BSTAR          = -.2119E-1
MEAN_MOTION_DOT = -.2092859E-1
MEAN_MOTION_DDOT = 0

CCSDS_OMM_VERS = 2.0
CREATION_DATE  = 
ORIGINATOR     = 

OBJECT_NAME    = STARLINK-36525
OBJECT_ID      = 2026-008F
CENTER_NAME    = EARTH
REF_FRAME      = TEME
TIME_SYSTEM    = UTC
MEAN_ELEMENT_THEORY = SGP/SGP4

EPOCH          = 2026-02-05T04:00:01.999584
MEAN_MOTION    = 15.59969152
ECCENTRICITY   = .000124
INCLINATION    = 43.0001
RA_OF_ASC_NODE = 31.0877
ARG_OF_PERICENTER = 269.2950
MEAN_ANOMALY   = 72.9502

EPHEMERIS_TYPE = 0
CLASSIFICATION_TYPE = U
NORAD_CAT_ID   = 67450
ELEMENT_SET_NO = 999
REV_AT_EPOCH   = 456
BSTAR          = -.2859E-1
MEAN_MOTION_DOT = -.2112037E-1
MEAN_MOTION_DDOT = 0

CCSDS_OMM_VERS = 2.0
CREATION_DATE  = 
ORIGINATOR     = 

OBJECT_NAME    = STARLINK-36511
OBJECT_ID      = 2026-008G
CENTER_NAME    = EARTH
REF_FRAME      = TEME
TIME_SYSTEM    = UTC
MEAN_ELEMENT_THEORY = SGP/SGP4

EPOCH          = 2026-02-05T04:00:01.999584
MEAN_MOTION    = 15.57747000
ECCENTRICITY   = .000129
INCLINATION    = 43.0001
RA_OF_ASC_NODE = 31.1542
ARG_OF_PERICENTER = 259.5052
MEAN_ANOMALY   = 55.8671

EPHEMERIS_TYPE = 0
CLASSIFICATION_TYPE = U
NORAD_CAT_ID   = 67451
ELEMENT_SET_NO = 999
REV_AT_EPOCH   = 456
BSTAR          = -.31068E-1
MEAN_MOTION_DOT = -.2108196E-1
MEAN_MOTION_DDOT = 0

CCSDS_OMM_VERS = 2.0
CREATION_DATE  = 
ORIGINATOR     = 

OBJECT_NAME    = STARLINK-36524
OBJECT_ID      = 2026-008H
CENTER_NAME    = EARTH
REF_FRAME      = TEME
TIME_SYSTEM    = UTC
MEAN_ELEMENT_THEORY = SGP/SGP4

EPOCH          = 2026-02-05T04:00:01.999584
MEAN_MOTION    = 15.60787856
ECCENTRICITY   = .0001165
INCLINATION    = 43.0002
RA_OF_ASC_NODE = 31.0542
ARG_OF_PERICENTER = 267.9234
MEAN_ANOMALY   = 87.6549

EPHEMERIS_TYPE = 0
CLASSIFICATION_TYPE = U
NORAD_CAT_ID   = 67452
ELEMENT_SET_NO = 999
REV_AT_EPOCH   = 456
BSTAR          = -.27917E-1
MEAN_MOTION_DOT = -.2126945E-1
MEAN_MOTION_DDOT = 0

CCSDS_OMM_VERS = 2.0
CREATION_DATE  = 
ORIGINATOR     = 

OBJECT_NAME    = STARLINK-36518
OBJECT_ID      = 2026-008J
CENTER_NAME    = EARTH
REF_FRAME      = TEME
TIME_SYSTEM    = UTC
MEAN_ELEMENT_THEORY = SGP/SGP4

EPOCH          = 2026-02-05T04:00:01.999584
MEAN_MOTION    = 15.63529679
ECCENTRICITY   = .0000732
INCLINATION    = 42.9995
RA_OF_ASC_NODE = 30.6152
ARG_OF_PERICENTER = 268.5939
MEAN_ANOMALY   = 259.9803

EPHEMERIS_TYPE = 0
CLASSIFICATION_TYPE = U
NORAD_CAT_ID   = 67453
ELEMENT_SET_NO = 999
REV_AT_EPOCH   = 458
BSTAR          = -.2502E-1
MEAN_MOTION_DOT = -.2082981E-1
MEAN_MOTION_DDOT = 0

